STARLINK-2024           
1 47606U 21009BL  24038.73126807  .00000617  00000+0  60324-4 0  9998
2 47606  53.0540 187.6956 0001108  88.6534 271.4582 15.06392518166246
STARLINK-2025           
1 47607U 21009BM  24038.67365760 -.00004493  00000+0 -28320-3 0  9992
2 47607  53.0543 182.7523 0001312  79.7051 280.4086 15.06363802166308
STARLINK-1528           
1 47620U 21012A   24038.85844258  .00000840  00000+0  75300-4 0  9996
2 47620  53.0552 247.1253 0001572  91.6910 268.4259 15.06395098165303
STARLINK-1609           
1 47621U 21012B   24038.85106562  .00001272  00000+0  10427-3 0  9994
2 47621  53.0544 247.1582 0001357  90.1095 270.0050 15.06393162165318
STARLINK-1645           
1 47622U 21012C   24038.84643480  .00000092  00000+0  25100-4 0  9993
2 47622  53.0538 247.1665 0001805  92.8914 267.2282 15.06393470165307
STARLINK-1655           
1 47623U 21012D   24038.65985418  .00000658  00000+0  63074-4 0  9993
2 47623  53.0545 183.0149 0001248  87.7559 272.3573 15.06388817166197
STARLINK-1669           
1 47624U 21012E   24038.91925303  .00002901  00000+0  21354-3 0  9997
2 47624  53.0526 226.8461 0001430  92.0096 268.1057 15.06399028165610
STARLINK-1704           
1 47625U 21012F   24038.85380602  .00001123  00000+0  94248-4 0  9996
2 47625  53.0528 247.1382 0001389  95.9476 264.1671 15.06399135165301
STARLINK-1761           
1 47626U 21012G   24038.84000995  .00000265  00000+0  36698-4 0  9991
2 47626  53.0539 247.2053 0001468  92.4435 267.6722 15.06389275165304
STARLINK-1972           
1 47627U 21012H   24038.58519414  .00006482  00000+0  45335-3 0  9998
2 47627  53.0521 153.3487 0001262  96.4308 263.6825 15.06422286166579
STARLINK-1974           
1 47629U 21012K   24038.52668381  .00017612  00000+0  11972-2 0  9998
2 47629  53.0548 128.6081 0001335  89.8322 270.2819 15.06432991166928
STARLINK-1992           
1 47632U 21012N   24038.61005114  .00008450  00000+0  58520-3 0  9992
2 47632  53.0538 153.2373 0001366  76.2122 283.9019 15.06419096166587
STARLINK-2009           
1 47633U 21012P   24038.89435820  .00000544  00000+0  55413-4 0  9999
2 47633  53.0539 246.9899 0001391 101.0887 259.0258 15.06395815165338
STARLINK-2010           
1 47634U 21012Q   24038.86949757  .00000174  00000+0  30613-4 0  9990
2 47634  53.0539 247.0707 0001525  92.5162 267.6001 15.06390891165305
STARLINK-2012           
1 47635U 21012R   24038.62943297  .00010788  00000+0  74168-3 0  9992
2 47635  53.0534 153.1503 0001369  82.3921 277.7223 15.06417146166603
STARLINK-2013           
1 47636U 21012S   24038.79024500  .00002208  00000+0  16707-3 0  9991
2 47636  53.0523 227.4262 0001287  89.4718 270.6418 15.06398866165570
STARLINK-2015           
1 47638U 21012U   24038.62574071  .00007302  00000+0  50826-3 0  9998
2 47638  53.0534 153.1688 0001298  90.5212 269.5925 15.06426555166584
STARLINK-2016           
1 47639U 21012V   24038.80499679  .00001179  00000+0  97997-4 0  9996
2 47639  53.0524 227.3609 0001376  93.8510 266.2636 15.06406223165565
STARLINK-2018           
1 47640U 21012W   24038.79946362  .00000684  00000+0  64804-4 0  9993
2 47640  53.0540 247.3819 0001560  94.5936 265.5232 15.06397015165309
STARLINK-2019           
1 47641U 21012X   24038.61099725  .00008399  00000+0  58176-3 0  9992
2 47641  53.0536 153.2308 0001145  84.4834 275.6286 15.06417808166087
STARLINK-2022           
1 47643U 21012Z   24038.88607622  .00001778  00000+0  13822-3 0  9997
2 47643  53.0516 227.0005 0001422  96.3681 263.7470 15.06405272165591
STARLINK-2026           
1 47644U 21012AA  24038.83263406  .00002604  00000+0  19364-3 0  9997
2 47644  53.0515 247.2338 0001360  98.6053 261.5090 15.06397125165314
STARLINK-2027           
1 47645U 21012AB  24038.78752207 -.00000404  00000+0 -82099-5 0  9999
2 47645  53.0539 217.6801 0001345  98.1034 262.0108 15.06384713165690
