OBJECT_NAME,OBJECT_ID,EPOCH,MEAN_MOTION,ECCENTRICITY,INCLINATION,RA_OF_ASC_NODE,ARG_OF_PERICENTER,MEAN_ANOMALY,EPHEMERIS_TYPE,CLASSIFICATION_TYPE,NORAD_CAT_ID,ELEMENT_SET_NO,REV_AT_EPOCH,BSTAR,MEAN_MOTION_DOT,MEAN_MOTION_DDOT
STARLINK-2024,2021-009BL,2024-02-07T17:33:01.561248,15.06392518,.0001108,53.0540,187.6956,88.6534,271.4582,0,U,47606,999,16624,.60324E-4,.617E-5,0
STARLINK-2025,2021-009BM,2024-02-07T16:10:04.016640,15.06363802,.0001312,53.0543,182.7523,79.7051,280.4086,0,U,47607,999,16630,-.2832E-3,-.4493E-4,0
STARLINK-1528,2021-012A,2024-02-07T20:36:09.438912,15.06395098,.0001572,53.0552,247.1253,91.6910,268.4259,0,U,47620,999,16530,.753E-4,.84E-5,0
STARLINK-1609,2021-012B,2024-02-07T20:25:32.069568,15.06393162,.0001357,53.0544,247.1582,90.1095,270.0050,0,U,47621,999,16531,.10427E-3,.1272E-4,0
STARLINK-1645,2021-012C,2024-02-07T20:18:51.966720,15.06393470,.0001805,53.0538,247.1665,92.8914,267.2282,0,U,47622,999,16530,.251E-4,.92E-6,0
STARLINK-1655,2021-012D,2024-02-07T15:50:11.401152,15.06388817,.0001248,53.0545,183.0149,87.7559,272.3573,0,U,47623,999,16619,.63074E-4,.658E-5,0
STARLINK-1669,2021-012E,2024-02-07T22:03:43.461792,15.06399028,.000143,53.0526,226.8461,92.0096,268.1057,0,U,47624,999,16561,.21354E-3,.2901E-4,0
STARLINK-1704,2021-012F,2024-02-07T20:29:28.840128,15.06399135,.0001389,53.0528,247.1382,95.9476,264.1671,0,U,47625,999,16530,.94248E-4,.1123E-4,0
STARLINK-1761,2021-012G,2024-02-07T20:09:36.859680,15.06389275,.0001468,53.0539,247.2053,92.4435,267.6722,0,U,47626,999,16530,.36698E-4,.265E-5,0
STARLINK-1972,2021-012H,2024-02-07T14:02:40.773696,15.06422286,.0001262,53.0521,153.3487,96.4308,263.6825,0,U,47627,999,16657,.45335E-3,.6482E-4,0
STARLINK-1974,2021-012K,2024-02-07T12:38:25.481184,15.06432991,.0001335,53.0548,128.6081,89.8322,270.2819,0,U,47629,999,16692,.11972E-2,.17612E-3,0
STARLINK-1992,2021-012N,2024-02-07T14:38:28.418496,15.06419096,.0001366,53.0538,153.2373,76.2122,283.9019,0,U,47632,999,16658,.5852E-3,.845E-4,0
STARLINK-2009,2021-012P,2024-02-07T21:27:52.548480,15.06395815,.0001391,53.0539,246.9899,101.0887,259.0258,0,U,47633,999,16533,.55413E-4,.544E-5,0
STARLINK-2010,2021-012Q,2024-02-07T20:52:04.590048,15.06390891,.0001525,53.0539,247.0707,92.5162,267.6001,0,U,47634,999,16530,.30613E-4,.174E-5,0
STARLINK-2012,2021-012R,2024-02-07T15:06:23.008608,15.06417146,.0001369,53.0534,153.1503,82.3921,277.7223,0,U,47635,999,16660,.74168E-3,.10788E-3,0
STARLINK-2013,2021-012S,2024-02-07T18:57:57.168000,15.06398866,.0001287,53.0523,227.4262,89.4718,270.6418,0,U,47636,999,16557,.16707E-3,.2208E-4,0
STARLINK-2015,2021-012U,2024-02-07T15:01:03.997344,15.06426555,.0001298,53.0534,153.1688,90.5212,269.5925,0,U,47638,999,16658,.50826E-3,.7302E-4,0
STARLINK-2016,2021-012V,2024-02-07T19:19:11.722656,15.06406223,.0001376,53.0524,227.3609,93.8510,266.2636,0,U,47639,999,16556,.97997E-4,.1179E-4,0
STARLINK-2018,2021-012W,2024-02-07T19:11:13.656768,15.06397015,.000156,53.0540,247.3819,94.5936,265.5232,0,U,47640,999,16530,.64804E-4,.684E-5,0
STARLINK-2019,2021-012X,2024-02-07T14:39:50.162400,15.06417808,.0001145,53.0536,153.2308,84.4834,275.6286,0,U,47641,999,16608,.58176E-3,.8399E-4,0
STARLINK-2022,2021-012Z,2024-02-07T21:15:56.985408,15.06405272,.0001422,53.0516,227.0005,96.3681,263.7470,0,U,47643,999,16559,.13822E-3,.1778E-4,0
STARLINK-2026,2021-012AA,2024-02-07T19:58:59.582784,15.06397125,.000136,53.0515,247.2338,98.6053,261.5090,0,U,47644,999,16531,.19364E-3,.2604E-4,0
STARLINK-2027,2021-012AB,2024-02-07T18:54:01.906848,15.06384713,.0001345,53.0539,217.6801,98.1034,262.0108,0,U,47645,999,16569,-.82099E-5,-.404E-5,0
